NORAD_CAT_ID,OBJECT_NAME,OBJECT_TYPE,EPOCH,MEAN_MOTION,ECCENTRICITY,INCLINATION,RA_OF_ASC_NODE,ARG_OF_PERICENTER,MEAN_ANOMALY,BSTAR,MEAN_MOTION_DOT,MEAN_MOTION_DDOT,TLE_LINE0,TLE_LINE1,TLE_LINE2,SEMIMAJOR_AXIS,PERIOD,APOGEE,PERIGEE,DECAYED
55650.0,STARLINK-5494,PAYLOAD,2023-05-31 06:00:02,15.49693893,0.0003587,70.0008,222.3861,266.431,341.2124,-0.018658,-0.00952541,0.0,0 STARLINK-5494,1 55650U 23021Y   23151.25002315 -.00952541  00000-0 -18658-1 0  9996,2 55650  70.0008 222.3861 0003587 266.4310 341.2124 15.49693893 16615,6795.758,92.922,420.06,415.185,0.0
55650.0,STARLINK-5494,PAYLOAD,2023-05-31 14:00:01,15.48990379,0.0003659,70.0007,221.4774,272.9625,33.2835,-0.017445,-0.00863689,0.0,0 STARLINK-5494,1 55650U 23021Y   23151.58334491 -.00863689  00000-0 -17445-1 0  9992,2 55650  70.0007 221.4774 0003659 272.9625  33.2835 15.48990379  1303,6797.815,92.964,422.168,417.193,0.0
55650.0,STARLINK-5494,PAYLOAD,2023-05-31 22:00:00,15.48345539,0.0003644,70.0004,220.5694,270.3714,93.7417,-0.018278,-0.00882788,0.0,0 STARLINK-5494,1 55650U 23021Y   23151.91667824 -.00882788  00000-0 -18278-1 0  9994,2 55650  70.0004 220.5694 0003644 270.3714  93.7417 15.48345539  1305,6799.703,93.002,424.045,419.09,0.0
55650.0,STARLINK-5494,PAYLOAD,2023-06-01 06:00:00,15.47740083,0.000362,70.0006,219.6625,268.9898,152.1928,-0.020235,-0.00963494,0.0,0 STARLINK-5494,1 55650U 23021Y   23152.25001157 -.00963494  00000-0 -20235-1 0  9993,2 55650  70.0006 219.6625 0003620 268.9898 152.1928 15.47740083 16776,6801.476,93.039,425.803,420.879,0.0
55650.0,STARLINK-5494,PAYLOAD,2023-06-01 12:00:02,15.47196701,0.0003621,70.0005,218.9829,273.5086,100.0568,-0.018659,-0.00867199,0.0,0 STARLINK-5494,1 55650U 23021Y   23152.50002315 -.00867199  00000-0 -18659-1 0  9990,2 55650  70.0005 218.9829 0003621 273.5086 100.0568 15.47196701  1302,6803.068,93.072,427.397,422.47,0.0
55650.0,STARLINK-5494,PAYLOAD,2023-06-01 22:00:00,15.46385469,0.0003357,70.0003,217.8513,271.3507,261.6745,-0.019497,-0.00891516,0.0,0 STARLINK-5494,1 55650U 23021Y   23152.91667824 -.00891516  00000-0 -19497-1 0  9998,2 55650  70.0003 217.8513 0003357 271.3507 261.6745 15.46385469 16877,6805.447,93.12,429.597,425.028,0.0
55650.0,STARLINK-5494,PAYLOAD,2023-06-02 12:47:57,15.46865007,0.0004579,69.9977,216.1854,272.6471,87.4189,-0.0054183,-0.00264445,0.0,0 STARLINK-5494,1 55650U 23021Y   23153.53330588 -.00264445  00000-0 -54183-2 0  9998,2 55650  69.9977 216.1854 0004579 272.6471  87.4189 15.46865007 17277,6804.041,93.092,429.021,422.79,0.0
55650.0,STARLINK-5494,PAYLOAD,2023-06-02 14:00:01,15.45084695,0.0003453,70.0001,216.044,273.604,8.1084,-0.020093,-0.00879557,0.0,0 STARLINK-5494,1 55650U 23021Y   23153.58334491 -.00879557  00000-0 -20093-1 0  9998,2 55650  70.0001 216.0440 0003453 273.6040   8.1084 15.45084695 16976,6809.266,93.199,433.482,428.78,0.0
55650.0,STARLINK-5494,PAYLOAD,2023-06-02 22:00:00,15.44418937,0.0003386,69.9999,215.1414,271.3078,63.5901,-0.020436,-0.0087482,0.0,0 STARLINK-5494,1 55650U 23021Y   23153.91667824 -.00874820  00000-0 -20436-1 0  9993,2 55650  69.9999 215.1414 0003386 271.3078  63.5901 15.44418937  1304,6811.223,93.239,435.394,430.782,0.0
55650.0,STARLINK-5494,PAYLOAD,2023-06-03 06:00:00,15.43836172,0.0003403,70.0002,214.2401,270.7181,116.5459,-0.02362,-0.00981455,0.0,0 STARLINK-5494,1 55650U 23021Y   23154.25001157 -.00981455  00000-0 -23620-1 0  9993,2 55650  70.0002 214.2401 0003403 270.7181 116.5459 15.43836172 17089,6812.937,93.274,437.12,432.483,0.0
55650.0,STARLINK-5494,PAYLOAD,2023-06-03 13:40:30,15.44817075,0.0004172,69.998,213.3807,293.8175,66.257,-0.0060059,-0.0027291,0.0,0 STARLINK-5494,1 55650U 23021Y   23154.56979887 -.00272910  00000-0 -60059-2 0  9998,2 55650  69.9980 213.3807 0004172 293.8175  66.2570 15.44817075 17430,6810.053,93.215,434.759,429.076,0.0
55650.0,STARLINK-5494,PAYLOAD,2023-06-03 21:27:08,15.4434999,0.0002655,69.9973,212.5049,306.8534,53.2405,-0.0057627,-0.00258144,0.0,0 STARLINK-5494,1 55650U 23021Y   23154.89385120 -.00258144  00000-0 -57627-2 0  9995,2 55650  69.9973 212.5049 0002655 306.8534  53.2405 15.44349990 17483,6811.426,93.243,435.099,431.482,0.0
55650.0,STARLINK-5494,PAYLOAD,2023-06-03 22:00:00,15.42458783,0.000323,69.9994,212.4394,269.4902,220.2351,-0.02157,-0.00864842,0.0,0 STARLINK-5494,1 55650U 23021Y   23154.91667824 -.00864842  00000-0 -21570-1 0  9997,2 55650  69.9994 212.4394 0003230 269.4902 220.2351 15.42458783 17183,6816.992,93.357,441.059,436.655,0.0
55650.0,STARLINK-5494,PAYLOAD,2023-06-04 14:00:01,15.41176558,0.0003231,69.9994,210.6422,275.3039,313.7837,-0.02328,-0.00891917,0.0,0 STARLINK-5494,1 55650U 23021Y   23155.58335648 -.00891917  00000-0 -23280-1 0  9990,2 55650  69.9994 210.6422 0003231 275.3039 313.7837 15.41176558 17287,6820.773,93.435,444.842,440.434,0.0
55650.0,STARLINK-5494,PAYLOAD,2023-06-04 16:00:00,15.41040164,0.0003378,69.9991,210.4179,275.6875,55.5215,-0.024762,-0.00940161,0.0,0 STARLINK-5494,1 55650U 23021Y   23155.66667824 -.00940161  00000-0 -24762-1 0  9995,2 55650  69.9991 210.4179 0003378 275.6875  55.5215 15.41040164  1304,6821.175,93.443,445.344,440.736,0.0
55650.0,STARLINK-5494,PAYLOAD,2023-06-04 22:00:00,15.40498269,0.0003214,69.9991,209.7451,269.7822,7.7321,-0.022818,-0.00857477,0.0,0 STARLINK-5494,1 55650U 23021Y   23155.91667824 -.00857477  00000-0 -22818-1 0  9990,2 55650  69.9991 209.7451 0003214 269.7822   7.7321 15.40498269  1302,6822.775,93.476,446.833,442.447,0.0
55650.0,STARLINK-5494,PAYLOAD,2023-06-05 06:00:00,15.39910615,0.0003341,69.9992,208.8488,269.8488,55.3449,-0.026475,-0.00965846,0.0,0 STARLINK-5494,1 55650U 23021Y   23156.25001157 -.00965846  00000-0 -26475-1 0  9992,2 55650  69.9992 208.8488 0003341 269.8488  55.3449 15.39910615 17391,6824.51,93.512,448.655,444.095,0.0
55650.0,STARLINK-5494,PAYLOAD,2023-06-05 14:00:01,15.39227101,0.0003304,69.9988,207.9534,277.6585,94.5198,-0.025214,-0.0090455,0.0,0 STARLINK-5494,1 55650U 23021Y   23156.58335648 -.00904550  00000-0 -25214-1 0  9998,2 55650  69.9988 207.9534 0003304 277.6585  94.5198 15.39227101  1303,6826.531,93.553,450.651,446.14,0.0
55650.0,STARLINK-5494,PAYLOAD,2023-06-05 22:00:00,15.38536391,0.0003247,69.9988,207.059,268.1236,150.1395,-0.024011,-0.00846676,0.0,0 STARLINK-5494,1 55650U 23021Y   23156.91667824 -.00846676  00000-0 -24011-1 0  9997,2 55650  69.9988 207.0590 0003247 268.1236 150.1395 15.38536391 17498,6828.574,93.595,452.656,448.221,0.0
55650.0,STARLINK-5494,PAYLOAD,2023-06-06 00:00:00,15.38389239,0.000314,69.9986,206.8357,266.3396,253.3256,-0.024569,-0.00861,0.0,0 STARLINK-5494,1 55650U 23021Y   23157.00001157 -.00861000  00000-0 -24569-1 0  9995,2 55650  69.9986 206.8357 0003140 266.3396 253.3256 15.38389239  1305,6829.009,93.604,453.018,448.73,0.0
55650.0,STARLINK-5494,PAYLOAD,2023-06-06 06:00:00,15.37951055,0.0003206,69.9988,206.1656,268.2011,195.3949,-0.028197,-0.00964592,0.0,0 STARLINK-5494,1 55650U 23021Y   23157.25001157 -.00964592  00000-0 -28197-1 0  9993,2 55650  69.9988 206.1656 0003206 268.2011 195.3949 15.37951055 17547,6830.306,93.631,454.361,449.981,0.0
55650.0,STARLINK-5494,PAYLOAD,2023-06-06 14:00:01,15.37268082,0.0003075,69.9984,205.2728,274.0577,234.1123,-0.026805,-0.00902113,0.0,0 STARLINK-5494,1 55650U 23021Y   23157.58334491 -.00902113  00000-0 -26805-1 0  9994,2 55650  69.9984 205.2728 0003075 274.0577 234.1123 15.37268082  1303,6832.329,93.673,456.295,452.093,0.0
55650.0,STARLINK-5494,PAYLOAD,2023-06-06 20:00:01,15.36767778,0.0003143,69.9985,204.6039,270.1167,180.9735,-0.027065,-0.00896682,0.0,0 STARLINK-5494,1 55650U 23021Y   23157.83334491 -.00896682  00000-0 -27065-1 0  9994,2 55650  69.9985 204.6039 0003143 270.1167 180.9735 15.36767778  1302,6833.812,93.703,457.825,453.529,0.0
55650.0,STARLINK-5494,PAYLOAD,2023-06-07 12:48:35,15.3721774,0.0004088,69.9967,202.737,262.4776,97.5939,-0.0074903,-0.00264757,0.0,0 STARLINK-5494,1 55650U 23021Y   23158.53374377 -.00264757  00000-0 -74903-2 0  9995,2 55650  69.9967 202.7370 0004088 262.4776  97.5939 15.37217740 18046,6832.478,93.676,457.136,451.55,0.0
55650.0,STARLINK-5494,PAYLOAD,2023-06-07 14:00:01,15.35312144,0.0003192,69.9985,202.5998,271.4629,5.7205,-0.028632,-0.00904469,0.0,0 STARLINK-5494,1 55650U 23021Y   23158.58334491 -.00904469  00000-0 -28632-1 0  9991,2 55650  69.9985 202.5998 0003192 271.4629   5.7205 15.35312144 17747,6838.13,93.792,462.178,457.813,0.0
55650.0,STARLINK-5494,PAYLOAD,2023-06-07 22:00:00,15.34628213,0.0003289,69.9986,201.7105,266.1641,52.4689,-0.027413,-0.00851524,0.0,0 STARLINK-5494,1 55650U 23021Y   23158.91667824 -.00851524  00000-0 -27413-1 0  9996,2 55650  69.9986 201.7105 0003289 266.1641  52.4689 15.34628213  1307,6840.162,93.834,464.277,459.777,0.0
55650.0,STARLINK-5494,PAYLOAD,2023-06-08 06:00:00,15.34029523,0.0003306,69.9991,200.8222,267.0794,92.1997,-0.031532,-0.00951791,0.0,0 STARLINK-5494,1 55650U 23021Y   23159.25001157 -.00951791  00000-0 -31532-1 0  9999,2 55650  69.9991 200.8222 0003306 267.0794  92.1997 15.34029523 17851,6841.942,93.87,466.069,461.545,0.0
55650.0,STARLINK-5494,PAYLOAD,2023-06-08 12:16:47,15.3519727,0.0003947,69.9962,200.1291,271.3564,88.7161,-0.0084221,-0.00278465,0.0,0 STARLINK-5494,1 55650U 23021Y   23159.51166331 -.00278465  00000-0 -84221-2 0  9998,2 55650  69.9962 200.1291 0003947 271.3564  88.7161 15.35197270 18190,6838.472,93.799,463.036,457.637,0.0
55650.0,STARLINK-5494,PAYLOAD,2023-06-08 22:00:00,15.32669971,0.000326,69.9989,199.0479,268.1756,170.0837,-0.029068,-0.00848765,0.0,0 STARLINK-5494,1 55650U 23021Y   23159.91667824 -.00848765  00000-0 -29068-1 0  9998,2 55650  69.9989 199.0479 0003260 268.1756 170.0837 15.32669971 17955,6845.987,93.954,470.084,465.62,0.0
55650.0,STARLINK-5494,PAYLOAD,2023-06-09 06:00:00,15.32065935,0.0003228,69.9993,198.1621,270.2229,206.338,-0.033219,-0.00943106,0.0,0 STARLINK-5494,1 55650U 23021Y   23160.25001157 -.00943106  00000-0 -33219-1 0  9996,2 55650  69.9993 198.1621 0003228 270.2229 206.3380 15.32065935 18005,6847.786,93.991,471.862,467.441,0.0
